GENESIS 2               
1 31789U 07028A   25112.87001847  .00092225  00000+0  76576-3 0  9994
2 31789  64.4773 227.6912 0019893 313.9590  45.9917 15.69419530985404
COSMOS 2428             
1 31792U 07029A   25112.60851686 -.00000109  00000+0 -32559-4 0  9990
2 31792  70.9350 157.3558 0005730 318.7401  41.3286 14.12842650918747
SL-16 R/B               
1 31793U 07029B   25112.59049502  .00000378  00000+0  22088-3 0  9996
2 31793  70.9734 127.3252 0001934 264.5316 233.3712 14.14776610919952
KORONAS-FOTON           
1 33504U 09003A   25112.92942015  .00015900  00000+0  45750-3 0  9998
2 33504  82.4320 247.1324 0011984 220.4964 139.5388 15.35580735896539
CZ-2C R/B               
1 37731U 11030B   25112.86037230  .00002849  00000+0  37446-3 0  9995
2 37731  97.8100  72.8170 0052611 315.6086  66.0421 14.80045025742626
H-2A R/B                
1 38341U 12025E   25112.80881574  .00004962  00000+0  47808-3 0  9991
2 38341  98.4338  50.8505 0045380 281.5697  78.0427 14.92686127700312
SHIJIAN-16 (SJ-16)      
1 39358U 13057A   25112.91231848  .00002204  00000+0  22433-3 0  9995
2 39358  74.9719  71.7574 0017082 176.0541 184.0785 14.91151820623679
SL-4 R/B                
1 39679U 14021B   25112.20163865  .00020924  00000+0  58273-3 0  9998
2 39679  51.6096  94.1607 0117153  19.5499 340.9918 15.30096947606915
ALOS-2                  
1 39766U 14029A   25113.07150073  .00003607  00000+0  48984-3 0  9993
2 39766  97.9198 211.2642 0001665 105.9545 254.1850 14.79458148589492
YAOGAN-29               
1 41038U 15069A   25113.05187319  .00000900  00000+0  11863-3 0  9993
2 41038  98.0385 135.2031 0000973  20.9554 339.1698 14.82572413508368
ASTRO-H (HITOMI)        
1 41337U 16012A   25112.70788765  .00004817  00000+0  30182-3 0  9993
2 41337  30.9999 263.9710 0010072 350.7769   9.2682 15.07714346503715
HXMT (HUIYAN)           
1 42758U 17034A   25113.00376035  .00010059  00000+0  56000-3 0  9995
2 42758  43.0160 353.3543 0035480   9.9065 350.2475 15.13220006433913
CZ-2C R/B               
1 43521U 18054D   25112.72691748  .00043564  00000+0  76056-3 0  9996
2 43521  35.1394 290.2209 0037027  89.6559 270.8409 15.48838839378530
SAOCOM 1A               
1 43641U 18076A   25112.95037715  .00000931  00000+0  12352-3 0  9996
2 43641  97.8901 300.7264 0001336  91.3745 268.7621 14.82154420353855
H-2A R/B                
1 43682U 18084L   25112.95957952  .00021807  00000+0  76407-3 0  9990
2 43682  98.8685 260.6250 0033089  47.1339 313.2667 15.28985606356596
SAOCOM 1B               
1 46265U 20059A   25113.04915163  .00000929  00000+0  12323-3 0  9993
2 46265  97.8896 299.9280 0001447  89.0242 271.1137 14.82154726251260
CSS (TIANHE)            
1 48274U 21035A   25111.74750140  .00047547  00000+0  52757-3 0  9999
2 48274  41.4658   4.0178 0004654 216.9544 143.0975 15.62100186227331
COSMOS 2550             
1 48865U 21056A   25113.08732912  .00006663  00000+0  20817-3 0  9990
2 48865  67.1438 290.8216 0008409 270.5157  89.5034 15.33831256214304
CZ-2C R/B               
1 52794U 22058K   25112.92761782  .00021519  00000+0  54356-3 0  9990
2 52794  50.1932 144.9746 0061086 309.5300  50.0274 15.37794981160543
GSLV R/B                
1 54149U 22138AN  25112.95228162  .00004489  00000+0  41227-3 0  9998
2 54149  87.3738 273.7700 0020660 231.4915 128.4463 14.94457292135998
XRISM                   
1 57800U 23137A   25112.44130653  .00008008  00000+0  50791-3 0  9993
2 57800  31.0012 194.6128 0008200  54.8875 305.2530 15.07554428 89216
ACS3                    
1 59588U 24077B   25112.41070173  .00011602  00000+0  11625-1 0  9994
2 59588  97.4829 118.5145 0052823  81.7149 278.9992 13.77126638 49813
NOAA 15                 
1 25338U 98030A   25113.06061880  .00000355  00000+0  16364-3 0  9997
2 25338  98.5395 139.3268 0011214 134.4186 225.7915 14.26948282401620
DMSP 5D-3 F16 (USA 172) 
1 28054U 03048A   25112.96212762  .00000244  00000+0  15143-3 0  9996
2 28054  99.0160 128.3616 0006112 254.0449 132.5345 14.14340050110086
NOAA 18                 
1 28654U 05018A   25113.05723064  .00000338  00000+0  20276-3 0  9991
2 28654  98.8425 193.0668 0013088 263.1019  96.8664 14.13581684 27030
METEOSAT-9 (MSG-2)      
1 28912U 05049B   25112.66914233  .00000133  00000+0  00000+0 0  9990
2 28912   8.4013  58.1459 0001031   2.3664  77.0004  1.00272377  2793
EWS-G1 (GOES 13)        
1 29155U 06018A   25112.84325553 -.00000224  00000+0  00000+0 0  9990
2 29155   3.4367  81.5328 0065162 264.6320 299.6751  0.98832061 39094
DMSP 5D-3 F17 (USA 191) 
1 29522U 06050A   25113.04749037  .00000293  00000+0  17438-3 0  9996
2 29522  98.7408 123.2421 0010253 168.8575 191.2827 14.14817353953008
FENGYUN 3A              
1 32958U 08026A   25112.87435877  .00000295  00000+0  16088-3 0  9994
2 32958  98.6444  57.7336 0007545 258.4150 101.6180 14.19425155875779
NOAA 19                 
1 33591U 09005A   25112.91437112  .00000328  00000+0  19873-3 0  9997
2 33591  99.0004 177.3446 0014638 136.0728 224.1610 14.13346390835114
GOES 14                 
1 35491U 09033A   25112.63821226 -.00000064  00000+0  00000+0 0  9997
2 35491   0.5901  88.5810 0000673  34.3673 209.4053  1.00270539  2373
DMSP 5D-3 F18 (USA 210) 
1 35951U 09057A   25113.11510210  .00000498  00000+0  28194-3 0  9994
2 35951  98.8569  91.0689 0011406  11.3887 348.7542 14.14594369800178
EWS-G2 (GOES 15)        
1 36411U 10008A   25112.94545647  .00000039  00000+0  00000+0 0  9999
2 36411   0.1846  86.0900 0001778 190.1265 336.8124  1.00274541 55423
COMS 1                  
1 36744U 10032A   25112.70002331 -.00000339  00000+0  00000+0 0  9991
2 36744   3.7265  80.6783 0000952 310.2398 200.2393  1.00270740 46878
FENGYUN 3B              
1 37214U 10059A   25113.07406913  .00000170  00000+0  11196-3 0  9992
2 37214  99.0180 150.9879 0021111 297.8147 116.2148 14.14716644748065
SUOMI NPP               
1 37849U 11061A   25112.89355412  .00000190  00000+0  11093-3 0  9994
2 37849  98.7549  52.6957 0002535  88.2847 271.8619 14.19522765698819
METEOSAT-10 (MSG-3)     
1 38552U 12035B   25112.74606991  .00000001  00000+0  00000+0 0  9996
2 38552   3.6777  62.0431 0000709 343.3236  74.6937  1.00265101 46643
METOP-B                 
1 38771U 12049A   25112.88503807  .00000247  00000+0  13224-3 0  9999
2 38771  98.5815 168.4329 0001931 113.4737 246.6644 14.21482746653552
INSAT-3D                
1 39216U 13038B   25112.84308177 -.00000336  00000+0  00000+0 0  9996
2 39216   0.8369  88.1863 0001546 246.9633 309.0457  1.00273926 42860
FENGYUN 3C              
1 39260U 13052A   25113.08017179  .00000250  00000+0  14845-3 0  9997
2 39260  98.4531 102.4956 0015248 149.0447 211.1630 14.15609600599197
METEOR-M 2              
1 40069U 14037A   25112.96051735  .00000292  00000+0  15321-3 0  9998
2 40069  98.4662  99.8502 0005881 165.8958 194.2385 14.21276539559622
HIMAWARI-8              
1 40267U 14060A   25112.80714124 -.00000273  00000+0  00000+0 0  9999
2 40267   0.0362  80.4242 0000468 342.0791 219.8510  1.00272665 38530
FENGYUN 2G              
1 40367U 14090A   25112.83708703 -.00000292  00000+0  00000+0 0  9993
2 40367   4.5708  77.9037 0002179 111.0334  62.7001  1.00262307 37783
METEOSAT-11 (MSG-4)     
1 40732U 15034A   25112.81929390  .00000070  00000+0  00000+0 0  9996
2 40732   2.1515  72.2604 0000909 327.9836 115.4300  1.00280733  3000
ELEKTRO-L 2             
1 41105U 15074A   25112.74311598 -.00000109  00000+0  00000+0 0  9996
2 41105   5.6311  75.6866 0001969 237.7726 150.6358  1.00272002 34296
INSAT-3DR               
1 41752U 16054A   25112.97071244 -.00000075  00000+0  00000+0 0  9991
2 41752   0.1482  89.0936 0010789 187.3014 358.3460  1.00271882 31608
HIMAWARI-9              
1 41836U 16064A   25112.80714133 -.00000273  00000+0  00000+0 0  9998
2 41836   0.0199 157.5487 0001411 268.8738 216.0143  1.00269721 30995
GOES 16                 
1 41866U 16071A   25112.80122280 -.00000204  00000+0  00000+0 0  9999
2 41866   0.0603 277.1197 0000935 185.4872 315.5042  1.00130652 30889
CYGFM05                 
1 41884U 16078A   25112.42220072  .00020885  00000+0  52118-3 0  9999
2 41884  34.9600 126.4921 0009959 168.9496 191.1443 15.39209600463550
CYGFM04                 
1 41885U 16078B   25112.37554792  .00022087  00000+0  52226-3 0  9999
2 41885  34.9353 106.8726 0009484 191.4296 168.6208 15.40832697463674
CYGFM02                 
1 41886U 16078C   25112.40736076  .00022451  00000+0  51415-3 0  9995
2 41886  34.9445 107.3109 0011079 183.0145 177.0509 15.41771427463785
CYGFM01                 
1 41887U 16078D   25112.42083499  .00021102  00000+0  52035-3 0  9993
2 41887  34.9438 130.2388 0009159 156.0176 204.0970 15.39576888463483
CYGFM08                 
1 41888U 16078E   25112.43391727  .00020961  00000+0  50226-3 0  9993
2 41888  34.9466 115.3824 0011645 178.1353 181.9411 15.40416629463693
CYGFM07                 
1 41890U 16078G   25112.39477505  .00021708  00000+0  51141-3 0  9997
2 41890  34.9483 105.9169 0010127 196.1230 163.9168 15.40939532463849
CYGFM03                 
1 41891U 16078H   25112.97646142  .00021018  00000+0  49844-3 0  9998
2 41891  34.9433 103.6878 0008857 188.4324 171.6247 15.40757538463761
FENGYUN 3D              
1 43010U 17072A   25113.02786648  .00000234  00000+0  13233-3 0  9991
2 43010  98.9584  76.2842 0001910 135.9425 224.1903 14.19612831385375
NOAA 20 (JPSS-1)        
1 43013U 17073A   25112.90922107  .00000171  00000+0  10194-3 0  9996
2 43013  98.7388  52.1063 0002211  76.2991 283.8431 14.19528858384840
GOES 17                 
1 43226U 18022A   25112.95270906 -.00000091  00000+0  00000+0 0  9998
2 43226   0.0181 331.9830 0002475 117.5097   0.3628  1.00271826 26200
FENGYUN 2H              
1 43491U 18050A   25112.83317741 -.00000126  00000+0  00000+0 0  9998
2 43491   1.9461  83.9935 0000330 139.9708   6.4728  1.00271755 25220
